0 SUPERBIRD C
1 24880U 97036A   13281.83092524 -.00000265  00000-0  10000-3 0  5922
2 24880 004.2221 064.3891 0005093 100.2443 245.1245 01.00269987 59264
0 SUPERBIRD C
1 24880U 97036A   13282.86923424  .00000000  00000-0  10000-3 0  5935
2 24880 004.2243 064.3788 0005104 102.2041 257.9757 01.00265426 59164
0 SUPERBIRD C
1 24880U 97036A   13285.79948602 -.00000276  00000-0  10000-3 0  5931
2 24880 004.2322 064.3472 0004825 101.4369 236.5732 01.00272145 59303
0 SUPERBIRD C
1 24880U 97036A   13286.83458999 -.00000277  00000-0  10000-3 0  5944
2 24880 004.2340 064.3412 0004633 104.8646 246.8049 01.00271735 59319
0 SUPERBIRD C
1 24880U 97036A   13288.01149370 -.00000277  00000-0  10000-3 0  5957
2 24880 004.2364 064.3307 0004794 107.0172 309.5072 01.00271387 59333
0 SUPERBIRD C
1 24880U 97036A   13289.02460942 -.00000276  00000-0  10000-3 0  5960
2 24880 004.2384 064.3214 0004840 107.9706 314.2806 01.00271061 59344
0 SUPERBIRD C
1 24880U 97036A   13290.56629737 -.00000274  00000-0  10000-3 0  5979
2 24880 004.2415 064.3071 0004948 109.5810 149.2076 01.00270666 59359
0 SUPERBIRD C
1 24880U 97036A   13293.91265203 -.00000268  00000-0  10000-3 0  5989
2 24880 004.2488 064.2792 0004715 117.4408 269.3454 01.00270224 59399
0 SUPERBIRD C
1 24880U 97036A   13295.04465344 -.00000267  00000-0  10000-3 0  5993
2 24880 004.2510 064.2680 0004666 119.1898 316.2360 01.00269919 59407
